HELIOS 1B               
1 25977U 99064A   20257.16698481  .00000031  00000-0  10979-4 0  9991
2 25977  98.2921  55.1635 0002470  76.8206 283.3281 14.82493619388115
TERRA                   
1 25994U 99068A   20257.41077168 -.00000065  00000-0 -44833-5 0  9991
2 25994  98.2067 330.4480 0001570 108.1630 251.9735 14.57114394103125
SL-16 R/B               
1 26070U 00006B   20257.22081080  .00000257  00000-0  15589-3 0  9993
2 26070  71.0050 348.8213 0017121 343.5404  16.5161 14.15468165 65051
MTI                     
1 26102U 00014A   20257.20602054  .00003110  00000-0  45520-4 0  9996
2 26102  97.4917 143.7334 0005577 267.3994  92.6608 15.56440949138166
TITAN 4B R/B            
1 26474U 00047B   20257.17259727  .00000012  00000-0  11970-4 0  9995
2 26474  67.9940 194.2336 0051076 102.1353 258.5518 14.95985365 92361
ENVISAT                 
1 27386U 02009A   20257.52438351  .00000022  00000-0  20718-4 0  9990
2 27386  98.1387 259.9485 0001284  85.6620  25.2829 14.37991691971272
IDEFIX & ARIANE 42P R/B 
1 27422U 02021B   20257.17170638 -.00000013  00000-0  11419-4 0  9996
2 27422  98.3598 214.6436 0011853 337.6852  22.3814 14.29293668957695
AQUA                    
1 27424U 02022A   20257.56680556  .00000041  00000-0  19099-4 0  9999
2 27424  98.2013 196.9305 0002775  75.8117 279.7587 14.57112881976743
CZ-4B R/B               
1 27432U 02024C   20257.57972160 -.00000015  00000-0  16490-4 0  9990
2 27432  99.0908 261.2769 0049503 288.2143 178.5722 14.14096772946188
MIDORI II (ADEOS-II)    
1 27597U 02056A   20257.08528671  .00000017  00000-0  24557-4 0  9991
2 27597  98.5261 202.4958 0002134  87.3112 272.8314 14.27459068924317
H-2A R/B                
1 27601U 02056E   20257.07746045  .00000038  00000-0  28495-4 0  9991
2 27601  98.2203 288.3141 0072448  17.6692  34.7873 14.31967388927230
CZ-4B R/B               
1 28059U 03049C   20257.00997127 -.00000025  00000-0  59001-5 0  9999
2 28059  98.4818 174.5155 0049088 230.1461 129.5411 14.52609396895547
CZ-2C R/B               
1 28222U 04012C   20257.50321861  .00000182  00000-0  14850-4 0  9998
2 28222  97.6862 220.3264 0048627  88.8254  25.9983 15.10458728899325
SL-16 R/B               
1 28353U 04021B   20257.05457389 -.00000130  00000-0 -42998-4 0  9997
2 28353  70.9989 115.6025 0006248 223.6079 136.4550 14.14240905839525
CZ-4B R/B               
1 28415U 04035C   20257.55376806 -.00000079  00000-0 -79371-6 0  9999
2 28415  97.6060 298.1284 0052782  53.2052 307.4001 15.06903044876902
CZ-2C R/B               
1 28480U 04046B   20257.57150434 -.00000002  00000-0  14983-4 0  9993
2 28480  98.0729 285.6616 0141122 324.6017 144.6168 14.25727907822991
ARIANE 5 R/B            
1 28499U 04049H   20257.19441840 -.00000009  00000-0  64274-5 0  9994
2 28499  98.0589 359.2659 0091884 350.5832  67.6108 14.80044333849074
CZ-2D R/B               
1 28738U 05024B   20257.52816453  .00000282  00000-0  20001-4 0  9998
2 28738  97.3797 277.1676 0010524 234.9724 125.0519 15.12096546834738
SUZAKU (ASTRO-EII)      
1 28773U 05025A   20257.15568716  .00000675  00000-0  28386-4 0  9993
2 28773  31.3813 166.3497 0004354   7.4997 352.5715 15.17672205837299
ALOS (DAICHI)           
1 28931U 06002A   20257.52332439  .00000061  00000-0  20592-4 0  9997
2 28931  97.8525 238.9723 0001467 108.3657 251.7701 14.62737724780576
H-2A R/B                
1 28932U 06002B   20257.56688678  .00000387  00000-0  41549-4 0  9997
2 28932  98.3276 252.5870 0089427  34.0458  76.5752 14.92280932794398
AKARI (ASTRO-F)         
1 28939U 06005A   20257.02677505  .00003060  00000-0  82010-4 0  9994
2 28939  98.2400 241.2544 0092909  18.6511 341.8097 15.34670380794323
RESURS-DK 1             
1 29228U 06021A   20257.22360803  .00000017  00000-0  86279-5 0  9997
2 29228  69.9365 324.5597 0006968 304.6277  55.4226 15.02565774785934
GENESIS 1               
1 29252U 06029A   20257.48104296 -.00000012  00000-0  93680-5 0  9992
2 29252  64.5228  13.6562 0008058  28.7314 331.4251 15.18206767781545
CZ-4B R/B               
1 29507U 06046C   20257.04167914 -.00000758  00000-0 -53601-4 0  9998
2 29507  97.7392 278.6990 0047972 226.7632 132.9582 15.00590503758503
CZ-2C R/B               
1 31114U 07010B   20257.49565874 -.00000028  00000-0  55102-5 0  9991
2 31114  98.2521 104.4202 0060054  11.6989 348.5568 14.19330955695505
COSMO-SKYMED 1          
1 31598U 07023A   20257.44400958 -.00001973  00000-0 -24136-3 0  9999
2 31598  97.8879  79.3247 0001484  86.4547 273.6801 14.82146528717866
GENESIS 2               
1 31789U 07028A   20257.15580809  .00000343  00000-0  27291-4 0  9992
2 31789  64.5043  56.4787 0034852 234.3513 125.4363 15.17341867728488
COSMOS 2428             
1 31792U 07029A   20257.24972573 -.00000316  00000-0 -14537-3 0  9990
2 31792  70.9012  88.5658 0010716 298.1758  61.8279 14.12284466681262
SL-16 R/B               
1 31793U 07029B   20256.90799462 -.00000280  00000-0 -12123-3 0  9996
2 31793  70.9732  62.6496 0002133 261.2268 209.8983 14.14431885682095
KORONAS-FOTON           
1 33504U 09003A   20257.17461004 -.00000071  00000-0 -54337-5 0  9993
2 33504  82.4420 135.5505 0018549 340.3947  19.6570 15.15697480640675
H-2A R/B                
1 38341U 12025E   20257.43614879  .00000153  00000-0  25622-4 0  9997
2 38341  98.5110  58.2030 0054541 310.1192  49.5248 14.84068310450498
CUSAT 2 & FALCON 9 R/B  
1 39271U 13055G   20257.19413667  .00002543  00000-0  61411-4 0  9990
2 39271  80.9689 172.5791 0583345 266.2316  87.2028 14.49015724363433
SL-4 R/B                
1 39679U 14021B   20257.14581739 -.00000019  00000-0  17260-4 0  9997
2 39679  51.6175  60.4408 0171103 249.5971 108.6550 15.06478754352241
ALOS-2                  
1 39766U 14029A   20257.56911481 -.00000248  00000-0 -26343-4 0  9996
2 39766  97.9227 352.9062 0001571  87.3765 272.7645 14.79468513340723
CZ-2C R/B               
1 40306U 14071B   20257.12386413  .00002094  00000-0  45498-4 0  9999
2 40306  97.3312 204.4597 0014544 199.8378 160.2308 15.45440176327384
SL-27 R/B               
1 40354U 14084B   20257.21244655  .00000807  00000-0  20852-4 0  9994
2 40354  74.7380 206.5205 0037634 348.8025  11.2345 15.40351093321643
YAOGAN 29               
1 41038U 15069A   20257.43818350 -.00000012  00000-0  53400-5 0  9996
2 41038  98.0172 245.2928 0001372  42.8673 317.2645 14.80458604259295
ASTRO-H (HITOMI)        
1 41337U 16012A   20257.18060167  .00000197  00000-0  89477-5 0  9990
2 41337  31.0049 173.5234 0012498 218.4088 141.5658 14.98706913250675
SHENZHOU-11 MODULE      
1 41868U 16061G   20257.17272588  .00166657  22125-4  14511-3 0  9999
2 41868  42.7848 301.9268 0013174  71.8317 328.6781 16.12246800220159
HXMT (HUIYAN)           
1 42758U 17034A   20257.51335962  .00000104  00000-0  20163-4 0  9992
2 42758  43.0189 272.8905 0011103 228.0283 263.2257 15.08886749179175
CZ-2C R/B               
1 43521U 18054D   20256.75979060  .00000485  00000-0  28366-4 0  9997
2 43521  35.1549   1.8848 0082376 168.2612 192.0044 15.11067782122367
AEOLUS                  
1 43600U 18066A   20257.52064117  .00022896  00000-0  90073-4 0  9996
2 43600  96.7210 262.5944 0005942  88.1737 272.0216 15.86870939119339
SAOCOM 1A               
1 43641U 18076A   20257.38476237 -.00000025  00000-0  34374-5 0  9990
2 43641  97.8902  82.2458 0001475  81.2393 278.8975 14.82156875104623
CREW DRAGON DEMO-1 DEB  
1 44064U 19011B   20257.21817532  .00012870  00000-0  12363-3 0  9991
2 44064  51.6324 227.1329 0003938  44.1259 316.0051 15.66986083 86669
